Skip Page Navigation
NASA Logo - Jet Propulsion Laboratory				+ View the NASA Portal
+ Center for Near-Earth Object Studies			
JPL Home	Earth	Solar System	Stars & Galaxies	Technology

JPL Solar System Dynamics
BODIES		ORBITS		EPHEMERIDES		TOOLS		PHYSICAL DATA		DISCOVERY		FAQ		SITE MAP

IMPORTANT: The SSD Announcement email list is now available. Major changes are coming in the near future, including possible hostname and/or URL changes. To be notified of such changes, subscribe to this email list.

Please visit this page for more details.


Don't show this message again
HORIZONS Web-Interface
This tool provides a web-based limited interface to JPL's HORIZONS system which can be used to generate ephemerides for solar-system bodies. Full access to HORIZONS features is available via the primary telnet interface. HORIZONS system news shows recent changes and improvements. A web-interface tutorial is available to assist new users.
Current Settings
Ephemeris Type [change] : 	ELEMENTS
Target Body [change] : 	Saturn Barycenter [6]
Center [change] : 	Solar System Barycenter (SSB) [500@0]
Time Span [change] : 	Start=JD 2458850.0, Stop=JD 2464329.0, Intervals=500
Table Settings [change] : 	CSV format=YES
Display/Output [change] : 	default (formatted HTML)
Object Data Page
 Revised: Jul 31, 2013           Saturn Barycenter                            6
 
 Dynamical point:
 ---------------
 The location of the center-of-mass of the Saturn system. The point about which
 Saturn and its satellites revolve. See 699 for Saturn center.
Results
*******************************************************************************
Ephemeris / WWW_USER Fri May 15 19:42:25 2020 Pasadena, USA      / Horizons    
*******************************************************************************
Target body name: Saturn Barycenter (6)           {source: DE431mx}
Center body name: Solar System Barycenter (0)     {source: DE431mx}
Center-site name: BODY CENTER
*******************************************************************************
Start time      : A.D. 2020-Jan-01 12:00:00.0000 TDB
Stop  time      : A.D. 2035-Jan-01 12:00:00.0000 TDB
Step-size       : 500 steps
*******************************************************************************
Center geodetic : 0.00000000,0.00000000,0.0000000 {E-lon(deg),Lat(deg),Alt(km)}
Center cylindric: 0.00000000,0.00000000,0.0000000 {E-lon(deg),Dxy(km),Dz(km)}
Center radii    : (undefined)                                                  
Keplerian GM    : 2.9605555619310214E-04 au^3/d^2
Output units    : AU-D, deg, Julian Day Number (Tp)                            
Output type     : GEOMETRIC osculating elements
Output format   : 10
Reference frame : ICRF/J2000.0                                                 
Coordinate systm: Ecliptic and Mean Equinox of Reference Epoch                 
*******************************************************************************
            JDTDB,            Calendar Date (TDB),                     EC,                     QR,                     IN,                     OM,                      W,                     Tp,                      N,                     MA,                     TA,                      A,                     AD,                     PR,
**************************************************************************************************************************************************************************************************************************************************************************************************************************************************
$$SOE
2462400.392000000, A.D. 2029-Sep-20 21:24:28.8000,  5.427394657940639E-02,  9.015006857772638E+00,  2.487857210650838E+00,  1.135948377918561E+02,  3.390821613704733E+02,  2.463576539219917E+06,  3.349717471103010E-02,  3.206023910885401E+02,  3.164407967072148E+02,  9.532365979731960E+00,  1.004972510169128E+01,  1.074717504104779E+04,
2462411.350000000, A.D. 2029-Oct-01 20:24:00.0000,  5.427360119093747E-02,  9.015006736234781E+00,  2.487858112332387E+00,  1.135947946729006E+02,  3.390823635006270E+02,  2.463576543694604E+06,  3.349719373867893E-02,  3.209692810687565E+02,  3.168389986018610E+02,  9.532362369906592E+00,  1.004971800357840E+01,  1.074716893625363E+04,
2462422.308000000, A.D. 2029-Oct-12 19:23:31.2000,  5.427330972698190E-02,  9.015006655414942E+00,  2.487859030487110E+00,  1.135947515360870E+02,  3.390825359015735E+02,  2.463576547338161E+06,  3.349720967441428E-02,  3.213362028751704E+02,  3.172374281012330E+02,  9.532359346665402E+00,  1.004971203791586E+01,  1.074716382346837E+04,
2462433.266000000, A.D. 2029-Oct-23 18:23:02.4000,  5.427307257467164E-02,  9.015006614183143E+00,  2.487859964753066E+00,  1.135947084042037E+02,  3.390826789288563E+02,  2.463576550161258E+06,  3.349722250396428E-02,  3.217031560650933E+02,  3.176360835105405E+02,  9.532356912714576E+00,  1.004970721124601E+01,  1.074715970726812E+04,
2462444.224000000, A.D. 2029-Nov-03 17:22:33.6000,  5.427289014260630E-02,  9.015006611776940E+00,  2.487860914774200E+00,  1.135946652987316E+02,  3.390827928688185E+02,  2.463576552172688E+06,  3.349723220986850E-02,  3.220701402616953E+02,  3.180349631922875E+02,  9.532355071365474E+00,  1.004970353095401E+01,  1.074715659325255E+04,
2462455.182000000, A.D. 2029-Nov-14 16:22:04.8000,  5.427276280403622E-02,  9.015006647874426E+00,  2.487861880174203E+00,  1.135946222410840E+02,  3.390828779440212E+02,  2.463576553379586E+06,  3.349723877408949E-02,  3.224371551435968E+02,  3.184340655596700E+02,  9.532353826039200E+00,  1.004970100420397E+01,  1.074715448720700E+04,
2462466.140000000, A.D. 2029-Nov-25 15:21:36.0000,  5.427269085193692E-02,  9.015006722455388E+00,  2.487862860541773E+00,  1.135945792532454E+02,  3.390829343520498E+02,  2.463576553788498E+06,  3.349724218117370E-02,  3.228042004053870E+02,  3.188333890371786E+02,  9.532353179666931E+00,  1.004969963687847E+01,  1.074715339408834E+04,
2462477.098000000, A.D. 2029-Dec-06 14:21:07.2000,  5.427267447258788E-02,  9.015006835545352E+00,  2.487863855436041E+00,  1.135945363574848E+02,  3.390829623200958E+02,  2.463576553406836E+06,  3.349724242108165E-02,  3.231712757060588E+02,  3.192329320063388E+02,  9.532353134152988E+00,  1.004969943276063E+01,  1.074715331711700E+04,
2462488.056000000, A.D. 2029-Dec-17 13:20:38.4000,  5.427271375274136E-02,  9.015006986911215E+00,  2.487864864396806E+00,  1.135944935758904E+02,  3.390829621577357E+02,  2.463576552244250E+06,  3.349723949050351E-02,  3.235383806218409E+02,  3.196326927534266E+02,  9.532353690125275E+00,  1.004970039333933E+01,  1.074715425735485E+04,
2462499.014000000, A.D. 2029-Dec-28 12:20:09.6000,  5.427280871844883E-02,  9.015007175863104E+00,  2.487865886960146E+00,  1.135944509297127E+02,  3.390829342807405E+02,  2.463576550313212E+06,  3.349723339190083E-02,  3.239055146280891E+02,  3.200326694463441E+02,  9.532354847117064E+00,  1.004970251837103E+01,  1.074715621401268E+04,
2462509.972000000, A.D. 2030-Jan-08 11:19:40.8000,  5.427295937988781E-02,  9.015007401142444E+00,  2.487866922638741E+00,  1.135944084402110E+02,  3.390828792172449E+02,  2.463576547629167E+06,  3.349722413174839E-02,  3.242726770963164E+02,  3.204328601276412E+02,  9.532356603900544E+00,  1.004970580665864E+01,  1.074715918501423E+04,
2462520.930000000, A.D. 2030-Jan-19 10:19:12.0000,  5.427316581233318E-02,  9.015007660915563E+00,  2.487867970964075E+00,  1.135943661269386E+02,  3.390827975852040E+02,  2.463576544209843E+06,  3.349721171626827E-02,  3.246398673222111E+02,  3.208332627388205E+02,  9.532358959296124E+00,  1.004971025767668E+01,  1.074716316836491E+04,
2462531.888000000, A.D. 2030-Jan-30 09:18:43.2000,  5.427342820669646E-02,  9.015007953160275E+00,  2.487869031521987E+00,  1.135943240064198E+02,  3.390826900057713E+02,  2.463576540072885E+06,  3.349719614658985E-02,  3.250070846096218E+02,  3.212338752083486E+02,  9.532361913090652E+00,  1.004971587302103E+01,  1.074716816370463E+04,
2462542.846000000, A.D. 2030-Feb-10 08:18:14.4000,  5.427374684575276E-02,  9.015008275984599E+00,  2.487870103912081E+00,  1.135942820939134E+02,  3.390825570508862E+02,  2.463576535234549E+06,  3.349717741823655E-02,  3.253743283150224E+02,  3.216346955023897E+02,  9.532365466134795E+00,  1.004972265628499E+01,  1.074717417247247E+04,
2462553.804000000, A.D. 2030-Feb-21 07:17:45.6000,  5.427412206973607E-02,  9.015008627775060E+00,  2.487871187718155E+00,  1.135942404046187E+02,  3.390823992255242E+02,  2.463576529709273E+06,  3.349715552212704E-02,  3.257415978600049E+02,  3.220357216414319E+02,  9.532369620153093E+00,  1.004973061253112E+01,  1.074718119758547E+04,
2462564.762000000, A.D. 2030-Mar-04 06:17:16.8000,  5.427455424080117E-02,  9.015009007257071E+00,  2.487872282494403E+00,  1.135941989541910E+02,  3.390822169665068E+02,  2.463576523509699E+06,  3.349713044612694E-02,  3.261088927292537E+02,  3.224369517010414E+02,  9.532374377449583E+00,  1.004973974764210E+01,  1.074718924294079E+04,
2462575.720000000, A.D. 2030-Mar-15 05:16:48.0000,  5.427504371357392E-02,  9.015009413490757E+00,  2.487873387763220E+00,  1.135941577587829E+02,  3.390820106513234E+02,  2.463576516646913E+06,  3.349710217663675E-02,  3.264762124603188E+02,  3.228383838030755E+02,  9.532379740606565E+00,  1.004975006772237E+01,  1.074719831290629E+04,
2462586.678000000, A.D. 2030-Mar-26 04:16:19.2000,  5.427559080806785E-02,  9.015009845858378E+00,  2.487874503007840E+00,  1.135941168352712E+02,  3.390817806070129E+02,  2.463576509130710E+06,  3.349707070010074E-02,  3.268435566334439E+02,  3.232400161066440E+02,  9.532385712198328E+00,  1.004976157853828E+01,  1.074720841183636E+04,
